start=new Date('2022-12-21T00:00:00.000Z').valueOf();
sats=[{"MEAN_MOTION_DOT":"0.00002272","EPOCH":"2022-12-20T10:27:44.339904","BSTAR":"0.00016080000000","EPHEMERIS_TYPE":"0","MEAN_ANOMALY":"336.5164","MEAN_MOTION_DDOT":"0.0000000000000","CENTER_NAME":"EARTH","TLE_LINE2":"2 53132  53.2203  50.0557 0002541  23.5945 336.5164 15.08846166 23797","DECAY_DATE":null,"RA_OF_ASC_NODE":"50.0557","TIME_SYSTEM":"UTC","FILE":"3713130","NORAD_CAT_ID":"53132","LAUNCH_DATE":"2022-07-17","GP_ID":"221029179","MEAN_MOTION":"15.08846166","REF_FRAME":"TEME","RCS_SIZE":"LARGE","COUNTRY_CODE":"US","PERIOD":"95.437","TLE_LINE1":"1 53132U 22083A   22354.43592986  .00002272  00000-0  16080-3 0  9992","SITE":"AFETR","ARG_OF_PERICENTER":"23.5945","MEAN_ELEMENT_THEORY":"SGP4","SEMIMAJOR_AXIS":"6917.862","REV_AT_EPOCH":"2379","OBJECT_ID":"2022-083A","CLASSIFICATION_TYPE":"U","OBJECT_NAME":"STARLINK-4063","ELEMENT_SET_NO":"999","ECCENTRICITY":"0.00025410","OBJECT_TYPE":"PAYLOAD","PERIAPSIS":"537.969","APOAPSIS":"541.484","INCLINATION":"53.2203"},{"OBJECT_NAME":"STARLINK-4154","ELEMENT_SET_NO":"999","ECCENTRICITY":"0.00024470","OBJECT_TYPE":"PAYLOAD","CLASSIFICATION_TYPE":"U","PERIAPSIS":"538.050","APOAPSIS":"541.435","INCLINATION":"53.2165","ARG_OF_PERICENTER":"31.2809","SITE":"AFETR","RCS_SIZE":"LARGE","COUNTRY_CODE":"US","TLE_LINE1":"1 53133U 22083B   22354.45433598  .00000709  00000-0  62678-4 0  9996","PERIOD":"95.437","SEMIMAJOR_AXIS":"6917.878","OBJECT_ID":"2022-083B","REV_AT_EPOCH":"2378","MEAN_ELEMENT_THEORY":"SGP4","NORAD_CAT_ID":"53133","LAUNCH_DATE":"2022-07-17","GP_ID":"221029392","TIME_SYSTEM":"UTC","FILE":"3713130","REF_FRAME":"TEME","MEAN_MOTION":"15.08840924","MEAN_MOTION_DDOT":"0.0000000000000","CENTER_NAME":"EARTH","TLE_LINE2":"2 53133  53.2165  49.9607 0002447  31.2809 328.8329 15.08840924 23780","MEAN_MOTION_DOT":"0.00000709","BSTAR":"0.00006267800000","EPOCH":"2022-12-20T10:54:14.628672","EPHEMERIS_TYPE":"0","MEAN_ANOMALY":"328.8329","DECAY_DATE":null,"RA_OF_ASC_NODE":"49.9607"},{"REF_FRAME":"TEME","MEAN_MOTION":"15.08851389","NORAD_CAT_ID":"53134","LAUNCH_DATE":"2022-07-17","GP_ID":"221035763","FILE":"3713407","TIME_SYSTEM":"UTC","DECAY_DATE":null,"RA_OF_ASC_NODE":"49.1108","MEAN_MOTION_DDOT":"0.0000000000000","CENTER_NAME":"EARTH","TLE_LINE2":"2 53134  53.2185  49.1108 0002632  25.6429 334.4693 15.08851389 24451","BSTAR":"0.00013406000000","MEAN_MOTION_DOT":"0.00001846","EPOCH":"2022-12-20T15:24:29.613888","EPHEMERIS_TYPE":"0","MEAN_ANOMALY":"334.4693","PERIAPSIS":"537.890","APOAPSIS":"541.531","INCLINATION":"53.2185","OBJECT_NAME":"STARLINK-4150","ECCENTRICITY":"0.00026320","ELEMENT_SET_NO":"999","OBJECT_TYPE":"PAYLOAD","CLASSIFICATION_TYPE":"U","SEMIMAJOR_AXIS":"6917.846","OBJECT_ID":"2022-083C","REV_AT_EPOCH":"2445","MEAN_ELEMENT_THEORY":"SGP4","SITE":"AFETR","ARG_OF_PERICENTER":"25.6429","RCS_SIZE":"LARGE","COUNTRY_CODE":"US","PERIOD":"95.437","TLE_LINE1":"1 53134U 22083C   22354.64200942  .00001846  00000-0  13406-3 0  9990"},{"INCLINATION":"53.2180","APOAPSIS":"541.561","PERIAPSIS":"537.865","CLASSIFICATION_TYPE":"U","OBJECT_TYPE":"PAYLOAD","ELEMENT_SET_NO":"999","ECCENTRICITY":"0.00026710","OBJECT_NAME":"STARLINK-4023","MEAN_ELEMENT_THEORY":"SGP4","REV_AT_EPOCH":"2444","OBJECT_ID":"2022-083D","SEMIMAJOR_AXIS":"6917.848","TLE_LINE1":"1 53135U 22083D   22354.58313521  .00001650  00000-0  12176-3 0  9998","PERIOD":"95.437","COUNTRY_CODE":"US","RCS_SIZE":"LARGE","ARG_OF_PERICENTER":"24.8810","SITE":"AFETR","MEAN_MOTION":"15.08850642","REF_FRAME":"TEME","FILE":"3713413","TIME_SYSTEM":"UTC","GP_ID":"221036035","LAUNCH_DATE":"2022-07-17","NORAD_CAT_ID":"53135","RA_OF_ASC_NODE":"49.3929","DECAY_DATE":null,"MEAN_ANOMALY":"335.2311","EPHEMERIS_TYPE":"0","BSTAR":"0.00012176000000","MEAN_MOTION_DOT":"0.00001650","EPOCH":"2022-12-20T13:59:42.882144","TLE_LINE2":"2 53135  53.2180  49.3929 0002671  24.8810 335.2311 15.08850642 24444","CENTER_NAME":"EARTH","MEAN_MOTION_DDOT":"0.0000000000000"},{"REF_FRAME":"TEME","MEAN_MOTION":"15.08848312","GP_ID":"221029606","LAUNCH_DATE":"2022-07-17","NORAD_CAT_ID":"53136","TIME_SYSTEM":"UTC","FILE":"3713130","RA_OF_ASC_NODE":"50.0022","DECAY_DATE":null,"TLE_LINE2":"2 53136  53.2197  50.0022 0002883  27.3916 332.7228 15.08848312 24783","MEAN_MOTION_DDOT":"0.0000000000000","CENTER_NAME":"EARTH","MEAN_ANOMALY":"332.7228","EPOCH":"2022-12-20T10:43:38.621856","MEAN_MOTION_DOT":"0.00000727","BSTAR":"0.00006380900000","EPHEMERIS_TYPE":"0","APOAPSIS":"541.714","INCLINATION":"53.2197","PERIAPSIS":"537.726","OBJECT_TYPE":"PAYLOAD","OBJECT_NAME":"STARLINK-4152","ECCENTRICITY":"0.00028830","ELEMENT_SET_NO":"999","CLASSIFICATION_TYPE":"U","REV_AT_EPOCH":"2478","OBJECT_ID":"2022-083E","SEMIMAJOR_AXIS":"6917.855","MEAN_ELEMENT_THEORY":"SGP4","SITE":"AFETR","ARG_OF_PERICENTER":"27.3916","PERIOD":"95.437","TLE_LINE1":"1 53136U 22083E   22354.44697479  .00000727  00000-0  63809-4 0  9995","RCS_SIZE":"LARGE","COUNTRY_CODE":"US"},{"RA_OF_ASC_NODE":"50.0418","DECAY_DATE":null,"MEAN_ANOMALY":"339.1464","MEAN_MOTION_DOT":"0.00001859","EPOCH":"2022-12-20T10:33:01.796832","BSTAR":"0.00013483000000","EPHEMERIS_TYPE":"0","TLE_LINE2":"2 53137  53.2177  50.0418 0002800  20.9642 339.1464 15.08860131 23791","MEAN_MOTION_DDOT":"0.0000000000000","CENTER_NAME":"EARTH","MEAN_MOTION":"15.08860131","REF_FRAME":"TEME","TIME_SYSTEM":"UTC","FILE":"3713130","GP_ID":"221029819","LAUNCH_DATE":"2022-07-17","NORAD_CAT_ID":"53137","MEAN_ELEMENT_THEORY":"SGP4","OBJECT_ID":"2022-083F","REV_AT_EPOCH":"2379","SEMIMAJOR_AXIS":"6917.819","TLE_LINE1":"1 53137U 22083F   22354.43960413  .00001859  00000-0  13483-3 0  9995","PERIOD":"95.436","RCS_SIZE":"LARGE","COUNTRY_CODE":"US","SITE":"AFETR","ARG_OF_PERICENTER":"20.9642","APOAPSIS":"541.621","INCLINATION":"53.2177","PERIAPSIS":"537.747","CLASSIFICATION_TYPE":"U","OBJECT_TYPE":"PAYLOAD","OBJECT_NAME":"STARLINK-4145","ELEMENT_SET_NO":"999","ECCENTRICITY":"0.00028000"},{"OBJECT_TYPE":"PAYLOAD","ECCENTRICITY":"0.00022980","ELEMENT_SET_NO":"999","OBJECT_NAME":"STARLINK-4141","CLASSIFICATION_TYPE":"U","INCLINATION":"53.2203","APOAPSIS":"541.311","PERIAPSIS":"538.131","ARG_OF_PERICENTER":"45.1667","SITE":"AFETR","TLE_LINE1":"1 53138U 22083G   22354.61951548  .00000810  00000-0  68979-4 0  9992","PERIOD":"95.437","COUNTRY_CODE":"US","RCS_SIZE":"LARGE","REV_AT_EPOCH":"2451","OBJECT_ID":"2022-083G","SEMIMAJOR_AXIS":"6917.856","MEAN_ELEMENT_THEORY":"SGP4","GP_ID":"221036042","LAUNCH_DATE":"2022-07-17","NORAD_CAT_ID":"53138","FILE":"3713413","TIME_SYSTEM":"UTC","REF_FRAME":"TEME","MEAN_MOTION":"15.08848042","TLE_LINE2":"2 53138  53.2203  44.2109 0002298  45.1667 314.9512 15.08848042 24514","CENTER_NAME":"EARTH","MEAN_MOTION_DDOT":"0.0000000000000","MEAN_ANOMALY":"314.9512","EPHEMERIS_TYPE":"0","BSTAR":"0.00006897900000","MEAN_MOTION_DOT":"0.00000810","EPOCH":"2022-12-20T14:52:06.137472","RA_OF_ASC_NODE":"44.2109","DECAY_DATE":null},{"REF_FRAME":"TEME","MEAN_MOTION":"15.08852058","GP_ID":"221030246","LAUNCH_DATE":"2022-07-17","NORAD_CAT_ID":"53139","FILE":"3713130","TIME_SYSTEM":"UTC","RA_OF_ASC_NODE":"50.0807","DECAY_DATE":null,"TLE_LINE2":"2 53139  53.2162  50.0807 0002132  41.3006 318.8147 15.08852058 23799","CENTER_NAME":"EARTH","MEAN_MOTION_DDOT":"0.0000000000000","MEAN_ANOMALY":"318.8147","EPHEMERIS_TYPE":"0","EPOCH":"2022-12-20T10:17:10.290048","MEAN_MOTION_DOT":"0.00020594","BSTAR":"0.00130780000000","INCLINATION":"53.2162","APOAPSIS":"541.183","PERIAPSIS":"538.234","OBJECT_TYPE":"PAYLOAD","ELEMENT_SET_NO":"999","ECCENTRICITY":"0.00021320","OBJECT_NAME":"STARLINK-4185","CLASSIFICATION_TYPE":"U","OBJECT_ID":"2022-083H","REV_AT_EPOCH":"2379","SEMIMAJOR_AXIS":"6917.844","MEAN_ELEMENT_THEORY":"SGP4","ARG_OF_PERICENTER":"41.3006","SITE":"AFETR","PERIOD":"95.437","TLE_LINE1":"1 53139U 22083H   22354.42859132  .00020594  00000-0  13078-2 0  9997","COUNTRY_CODE":"US","RCS_SIZE":"LARGE"},{"BSTAR":"0.00024823000000","MEAN_MOTION_DOT":"0.00003666","EPOCH":"2022-12-20T10:22:28.210944","EPHEMERIS_TYPE":"0","MEAN_ANOMALY":"321.5862","MEAN_MOTION_DDOT":"0.0000000000000","CENTER_NAME":"EARTH","TLE_LINE2":"2 53140  53.2170  50.0631 0002734  38.5325 321.5862 15.08849900 23792","DECAY_DATE":null,"RA_OF_ASC_NODE":"50.0631","FILE":"3713130","TIME_SYSTEM":"UTC","LAUNCH_DATE":"2022-07-17","NORAD_CAT_ID":"53140","GP_ID":"221029180","MEAN_MOTION":"15.08849900","REF_FRAME":"TEME","RCS_SIZE":"LARGE","COUNTRY_CODE":"US","PERIOD":"95.437","TLE_LINE1":"1 53140U 22083J   22354.43227096  .00003666  00000-0  24823-3 0  9990","SITE":"AFETR","ARG_OF_PERICENTER":"38.5325","MEAN_ELEMENT_THEORY":"SGP4","SEMIMAJOR_AXIS":"6917.850","REV_AT_EPOCH":"2379","OBJECT_ID":"2022-083J","CLASSIFICATION_TYPE":"U","OBJECT_NAME":"STARLINK-4170","ELEMENT_SET_NO":"999","ECCENTRICITY":"0.00027340","OBJECT_TYPE":"PAYLOAD","PERIAPSIS":"537.824","APOAPSIS":"541.606","INCLINATION":"53.2170"},{"CLASSIFICATION_TYPE":"U","OBJECT_TYPE":"PAYLOAD","OBJECT_NAME":"STARLINK-4103","ECCENTRICITY":"0.00027310","ELEMENT_SET_NO":"999","APOAPSIS":"541.573","INCLINATION":"53.2177","PERIAPSIS":"537.794","TLE_LINE1":"1 53141U 22083K   22354.54633015  .00004216  00000-0  28267-3 0  9993","PERIOD":"95.436","RCS_SIZE":"LARGE","COUNTRY_CODE":"US","ARG_OF_PERICENTER":"23.9659","SITE":"AFETR","MEAN_ELEMENT_THEORY":"SGP4","REV_AT_EPOCH":"2444","OBJECT_ID":"2022-083K","SEMIMAJOR_AXIS":"6917.818","FILE":"3713447","TIME_SYSTEM":"UTC","GP_ID":"221036365","NORAD_CAT_ID":"53141","LAUNCH_DATE":"2022-07-17","MEAN_MOTION":"15.08860319","REF_FRAME":"TEME","MEAN_ANOMALY":"336.1460","MEAN_MOTION_DOT":"0.00004216","BSTAR":"0.00028267000000","EPOCH":"2022-12-20T13:06:42.924960","EPHEMERIS_TYPE":"0","TLE_LINE2":"2 53141  53.2177  49.5373 0002731  23.9659 336.1460 15.08860319 24447","MEAN_MOTION_DDOT":"0.0000000000000","CENTER_NAME":"EARTH","RA_OF_ASC_NODE":"49.5373","DECAY_DATE":null}];
